HYSIS                   
1 43719U 18096A   26196.83607475  .00000629  00000+0  92883-4 0  9992
2 43719  97.9832 263.3575 0001837  82.4132 277.7288 14.78671680411650
KAZSTSAT                
1 43783U 18099AB  26196.04993678  .00000476  00000+0  42847-4 0  9997
2 43783  97.4318 226.7225 0007370 341.6349  18.4608 14.99955337415486
SAUDISAT 5A             
1 43831U 18102A   26196.84460719  .00002934  00000+0  10890-3 0  9992
2 43831  97.3052 257.8758 0010375  41.7753 318.4277 15.28325019420051
SAUDISAT 5B             
1 43833U 18102C   26196.85877374  .00002717  00000+0  10029-3 0  9997
2 43833  97.3162 261.0113 0011155  43.0840 317.1271 15.28567634420170
GAOFEN-10R              
1 44622U 19066A   26196.89601321  .00000531  00000+0  71930-4 0  9996
2 44622  98.0509 150.6862 0006849  51.1607 309.0217 14.83058088366637
CARTOSAT-3              
1 44804U 19081A   26196.80788708  .00001456  00000+0  72342-4 0  9996
2 44804  97.4296 258.2117 0012999  56.8541 303.3939 15.19186476367817
GAOFEN-12 01            
1 44819U 19082A   26196.87194435  .00000157  00000+0  27091-4 0  9996
2 44819  97.8109 202.4953 0000934  55.0914 305.0386 14.80479778358339
CSG-1                   
1 44873U 19092A   26196.81085479  .00000174  00000+0  28459-4 0  9996
2 44873  97.8896  19.9999 0001476  90.9338 269.2044 14.82157134355715
NEMO-HD                 
1 46277U 20061F   26196.82393916  .00006509  00000+0  13923-3 0  9990
2 46277  97.1904 258.4960 0001002  99.2436 260.8927 15.45147004326408
SENTINEL-6A             
1 46984U 20086A   26196.81742705 -.00000038  00000+0  99737-4 0  9995
2 46984  66.0412  75.5881 0007784 269.7426  90.2697 12.80930208263993
CAS500-1                
1 47932U 21022A   26196.89422565  .00003049  00000+0  14412-3 0  9997
2 47932  97.3865  91.5614 0005251 168.6995 191.4359 15.20135341295124
GAOFEN-12 02            
1 48079U 21026A   26196.88609304  .00000141  00000+0  25397-4 0  9996
2 48079  97.9935 194.9512 0005881 130.3894 229.7832 14.80316366286000
PLEIADES NEO 3          
1 48268U 21034A   26196.88691311 -.00000132  00000+0 -10171-4 0  9990
2 48268  97.8945 271.2403 0001314  94.2326 265.9037 14.81666540281909
PLEIADES NEO 4          
1 49070U 21073E   26196.85313892  .00000688  00000+0  93995-4 0  9996
2 49070  97.8943 271.2033 0001358  91.0079 269.1289 14.81674122265616
LANDSAT 9               
1 49260U 21088A   26196.21385417  .00000163  00000+0  46258-4 0  9993
2 49260  98.2270 266.0503 0001138  88.4793 271.6535 14.57095533255086
CSG-2                   
1 51444U 22008A   26196.84458505 -.00000124  00000+0 -90815-5 0  9999
2 51444  97.8885  20.0272 0001506  85.1836 274.9549 14.82149379240836
GAOFEN-12 03            
1 52912U 22069A   26196.85331144  .00000757  00000+0  10663-3 0  9998
2 52912  97.8247  83.9968 0002428  72.3885 287.7592 14.80077250218858
SWOT                    
1 54754U 22173A   26196.78430093  .00000017  00000+0  13300-4 0  9996
2 54754  77.6110 356.7026 0000247  75.5054 284.6124 14.00172455183151
GAOFEN-12 04            
1 57654U 23123A   26196.87314380  .00000437  00000+0  64935-4 0  9990
2 57654  97.9101 114.4621 0003485  49.0628 311.0885 14.79775950156871
PARS 1                  
1 59065U 24039Q   26196.85790046  .00006734  00000+0  13836-3 0  9999
2 59065  97.4839 178.6958 0009699  24.8378 335.3336 15.46299151133079
RESURS-P 4              
1 59371U 24061A   26196.86783600  .00001600  00000+0  53763-4 0  9994
2 59371  97.2759 144.2716 0003225  88.5586 271.6025 15.32282283128159
LEGION 1                
1 59625U 24081A   26196.79279926  .00001916  00000+0  10077-3 0  9991
2 59625  97.5011 274.3464 0007719 267.1890  92.8460 15.16846249121873
LEGION 2                
1 59626U 24081B   26196.75722521  .00002148  00000+0  11260-3 0  9995
2 59626  97.5012 274.4081 0010267 231.1012 128.9306 15.16825601121879
ALOS-4 (DAICHI-4)       
1 60182U 24123A   26196.83485763  .00000299  00000+0  46934-4 0  9996
2 60182  97.9220 293.5997 0001592  93.9088 266.2305 14.79470661110119
LEGION 3                
1 60452U 24146A   26196.60018411  .00001516  00000+0  91985-4 0  9997
2 60452  45.0018 238.2179 0008174 336.2769  23.7732 15.15657182106333
LEGION 4                
1 60453U 24146B   26196.73173926  .00001805  00000+0  10687-3 0  9995
2 60453  45.0029 329.3799 0008970 117.1301 243.0493 15.15684033105209
SENTINEL-2C             
1 60989U 24157A   26196.77395792  .00000045  00000+0  33758-4 0  9992
2 60989  98.5684 271.1502 0000965 104.1193 256.0097 14.30815757 97074
IONOSFERA-M 1           
1 61735U 24199A   26196.81639297  .00000026  00000+0  31429-4 0  9996
2 61735  98.7134  69.6814 0002150  71.9500 288.1912 14.22759225131779
IONOSFERA-M 2           
1 61736U 24199B   26196.78029472  .00000028  00000+0  32003-4 0  9992
2 61736  98.7132  69.5560 0000517 125.5304 234.5922 14.22762611134893
PRSC-EO1                
1 62725U 25012A   26196.87235902  .00003679  00000+0  18612-3 0  9997
2 62725  97.4216 268.7697 0006833 144.5159 215.6530 15.17625970 82541
BIOMASS                 
1 63772U 25090A   26196.53639657  .00000255  00000+0  53361-4 0  9992
2 63772  98.0757  23.4381 0001241  94.3647 265.7699 14.67532789 64843
