OBJECT_NAME,OBJECT_ID,EPOCH,MEAN_MOTION,ECCENTRICITY,INCLINATION,RA_OF_ASC_NODE,ARG_OF_PERICENTER,MEAN_ANOMALY,EPHEMERIS_TYPE,CLASSIFICATION_TYPE,NORAD_CAT_ID,ELEMENT_SET_NO,REV_AT_EPOCH,BSTAR,MEAN_MOTION_DOT,MEAN_MOTION_DDOT
HYSIS,2018-096A,2026-07-15T20:03:56.858400,14.78671680,.0001837,97.9832,263.3575,82.4132,277.7288,0,U,43719,999,41165,.92883E-4,.629E-5,0
KAZSTSAT,2018-099AB,2026-07-15T01:11:54.537792,14.99955337,.00073704,97.4318,226.7225,341.6349,18.4608,0,U,43783,999,41548,.42847369E-4,.476E-5,0
SAUDISAT 5A,2018-102A,2026-07-15T20:16:14.061216,15.28325019,.0010375,97.3052,257.8758,41.7753,318.4277,0,U,43831,999,42005,.1089E-3,.2934E-4,0
SAUDISAT 5B,2018-102C,2026-07-15T20:36:38.051136,15.28567634,.0011155,97.3162,261.0113,43.0840,317.1271,0,U,43833,999,42017,.10029E-3,.2717E-4,0
GAOFEN-10R,2019-066A,2026-07-15T21:30:15.541344,14.83058088,.0006849,98.0509,150.6862,51.1607,309.0217,0,U,44622,999,36663,.7193E-4,.531E-5,0
CARTOSAT-3,2019-081A,2026-07-15T19:23:21.443712,15.19186476,.0012999,97.4296,258.2117,56.8541,303.3939,0,U,44804,999,36781,.72342E-4,.1456E-4,0
GAOFEN-12 01,2019-082A,2026-07-15T20:55:35.991840,14.80479778,.0000934,97.8109,202.4953,55.0914,305.0386,0,U,44819,999,35833,.27091E-4,.157E-5,0
CSG-1,2019-092A,2026-07-15T19:27:37.853856,14.82157134,.0001476,97.8896,19.9999,90.9338,269.2044,0,U,44873,999,35571,.28459E-4,.174E-5,0
NEMO-HD,2020-061F,2026-07-15T19:46:28.343424,15.45147004,.0001002,97.1904,258.4960,99.2436,260.8927,0,U,46277,999,32640,.13923E-3,.6509E-4,0
SENTINEL-6A,2020-086A,2026-07-15T19:37:05.697120,12.80930208,.0007784,66.0412,75.5881,269.7426,90.2697,0,U,46984,999,26399,.99737E-4,-.38E-6,0
CAS500-1,2021-022A,2026-07-15T21:27:41.096160,15.20135341,.0005251,97.3865,91.5614,168.6995,191.4359,0,U,47932,999,29512,.14412E-3,.3049E-4,0
GAOFEN-12 02,2021-026A,2026-07-15T21:15:58.438656,14.80316366,.0005881,97.9935,194.9512,130.3894,229.7832,0,U,48079,999,28600,.25397E-4,.141E-5,0
PLEIADES NEO 3,2021-034A,2026-07-15T21:17:09.292704,14.81666540,.0001314,97.8945,271.2403,94.2326,265.9037,0,U,48268,999,28190,-.10171E-4,-.132E-5,0
PLEIADES NEO 4,2021-073E,2026-07-15T20:28:31.202688,14.81674122,.0001358,97.8943,271.2033,91.0079,269.1289,0,U,49070,999,26561,.93995E-4,.688E-5,0
LANDSAT 9,2021-088A,2026-07-15T05:07:57.000288,14.57095533,.00011386,98.2270,266.0503,88.4793,271.6535,0,U,49260,999,25508,.46258313E-4,.163E-5,0
CSG-2,2022-008A,2026-07-15T20:16:12.148320,14.82149379,.0001506,97.8885,20.0272,85.1836,274.9549,0,U,51444,999,24083,-.90815E-5,-.124E-5,0
GAOFEN-12 03,2022-069A,2026-07-15T20:28:46.108416,14.80077250,.0002428,97.8247,83.9968,72.3885,287.7592,0,U,52912,999,21885,.10663E-3,.757E-5,0
SWOT,2022-173A,2026-07-15T18:49:23.600352,14.00172455,.0000247,77.6110,356.7026,75.5054,284.6124,0,U,54754,999,18315,.133E-4,.17E-6,0
GAOFEN-12 04,2023-123A,2026-07-15T20:57:19.624320,14.79775950,.0003485,97.9101,114.4621,49.0628,311.0885,0,U,57654,999,15687,.64935E-4,.437E-5,0
PARS 1,2024-039Q,2026-07-15T20:35:22.599744,15.46299151,.0009699,97.4839,178.6958,24.8378,335.3336,0,U,59065,999,13307,.13836E-3,.6734E-4,0
RESURS-P 4,2024-061A,2026-07-15T20:49:41.030400,15.32282283,.0003225,97.2759,144.2716,88.5586,271.6025,0,U,59371,999,12815,.53763E-4,.16E-4,0
LEGION 1,2024-081A,2026-07-15T19:01:37.856064,15.16846249,.0007719,97.5011,274.3464,267.1890,92.8460,0,U,59625,999,12187,.10077E-3,.1916E-4,0
LEGION 2,2024-081B,2026-07-15T18:10:24.258144,15.16825601,.0010267,97.5012,274.4081,231.1012,128.9306,0,U,59626,999,12187,.1126E-3,.2148E-4,0
ALOS-4 (DAICHI-4),2024-123A,2026-07-15T20:02:11.699232,14.79470661,.0001592,97.9220,293.5997,93.9088,266.2305,0,U,60182,999,11011,.46934E-4,.299E-5,0
LEGION 3,2024-146A,2026-07-15T14:24:15.907104,15.15657182,.0008174,45.0018,238.2179,336.2769,23.7732,0,U,60452,999,10633,.91985E-4,.1516E-4,0
LEGION 4,2024-146B,2026-07-15T17:33:42.272064,15.15684033,.000897,45.0029,329.3799,117.1301,243.0493,0,U,60453,999,10520,.10687E-3,.1805E-4,0
SENTINEL-2C,2024-157A,2026-07-15T18:34:29.964288,14.30815757,.0000965,98.5684,271.1502,104.1193,256.0097,0,U,60989,999,9707,.33758E-4,.45E-6,0
IONOSFERA-M 1,2024-199A,2026-07-15T19:35:36.352608,14.22759225,.000215,98.7134,69.6814,71.9500,288.1912,0,U,61735,999,13177,.31429E-4,.26E-6,0
IONOSFERA-M 2,2024-199B,2026-07-15T18:43:37.463808,14.22762611,.0000517,98.7132,69.5560,125.5304,234.5922,0,U,61736,999,13489,.32003E-4,.28E-6,0
PRSC-EO1,2025-012A,2026-07-15T20:56:11.819328,15.17625970,.0006833,97.4216,268.7697,144.5159,215.6530,0,U,62725,999,8254,.18612E-3,.3679E-4,0
BIOMASS,2025-090A,2026-07-15T12:52:24.663648,14.67532789,.0001241,98.0757,23.4381,94.3647,265.7699,0,U,63772,999,6484,.53361E-4,.255E-5,0
